IRIDIUM 159             
1 43578U 18061K   24122.47331751  .00000067  00000+0  17041-4 0  9994
2 43578  86.4015  21.3019 0002275  90.7532 269.3924 14.34216821302058
IRIDIUM 180             
1 43922U 19002A   24122.26349885  .00000118  00000+0  34908-4 0  9995
2 43922  86.3940 318.2950 0002236  90.3530 269.7922 14.34212776277632
IRIDIUM 176             
1 43923U 19002B   24122.28812760  .00000604  00000+0  91873-4 0  9999
2 43923  86.6068 318.3100 0002416  94.0513 266.0980 14.72236313284948
IRIDIUM 168             
1 43924U 19002C   24122.25715342  .00000149  00000+0  46076-4 0  9994
2 43924  86.3943 318.3531 0002121  91.8675 268.2764 14.34214984277611
IRIDIUM 173             
1 43925U 19002D   24122.52354357  .00000065  00000+0  16231-4 0  9997
2 43925  86.3939 318.1624 0002186  90.3755 269.7692 14.34216179277649
IRIDIUM 169             
1 43926U 19002E   24122.38384039  .00000521  00000+0  16368-3 0  9999
2 43926  86.4251 349.8342 0003791  57.2979 302.8585 14.38604536278541
IRIDIUM 172             
1 43927U 19002F   24122.51720272  .00000045  00000+0  88985-5 0  9995
2 43927  86.3940 318.1707 0002130  91.9347 268.2093 14.34215806277643
IRIDIUM 175             
1 43928U 19002G   24122.21436788  .00000726  00000+0  11125-3 0  9995
2 43928  86.1465 294.1261 0002358  88.8259 271.3228 14.72245717284921
